NORAD_CAT_ID,OBJECT_NAME,OBJECT_TYPE,EPOCH,MEAN_MOTION,ECCENTRICITY,INCLINATION,RA_OF_ASC_NODE,ARG_OF_PERICENTER,MEAN_ANOMALY,BSTAR,MEAN_MOTION_DOT,MEAN_MOTION_DDOT,TLE_LINE0,TLE_LINE1,TLE_LINE2,SEMIMAJOR_AXIS,PERIOD,APOGEE,PERIGEE,DECAYED
53392.0,STARLINK-4535,PAYLOAD,2022-09-06 14:00:01,15.49941181,0.0001273,53.2172,113.3531,74.6518,251.8129,-0.0086213,-0.00462837,0.0,0 STARLINK-4535,1 53392U 22097E   22249.58334491 -.00462837  00000-0 -86213-2 0  9992,2 53392  53.2172 113.3531 0001273  74.6518 251.8129 15.49941181  1300,6795.035,92.907,417.765,416.035,0.0
53392.0,STARLINK-4535,PAYLOAD,2022-09-06 20:00:01,15.49725809,0.0001145,53.2175,112.1582,63.8876,218.2498,-0.016821,-0.00865268,0.0,0 STARLINK-4535,1 53392U 22097E   22249.83334491 -.00865268  00000-0 -16821-1 0  9992,2 53392  53.2175 112.1582 0001145  63.8876 218.2498 15.49725809  4767,6795.665,92.92,418.3080000000001,416.751,0.0
53392.0,STARLINK-4535,PAYLOAD,2022-09-06 22:00:00,15.49432548,0.000108,53.2177,111.7605,72.6145,314.7813,-0.0147099999999999,-0.00757728,0.0,0 STARLINK-4535,1 53392U 22097E   22249.91667824 -.00757728  00000-0 -14710-1 0  9996,2 53392  53.2177 111.7605 0001080  72.6145 314.7813 15.49432548  1300,6796.522,92.937,419.121,417.653,0.0
53392.0,STARLINK-4535,PAYLOAD,2022-09-07 04:00:00,15.4909883,0.0001046,53.2171,110.5638,80.0336,262.4596,-0.022382,-0.01115605,0.0,0 STARLINK-4535,1 53392U 22097E   22250.16667824 -.01115605  00000-0 -22382-1 0  9992,2 53392  53.2171 110.5638 0001046  80.0336 262.4596 15.49098830  4812,6797.498000000001,92.957,420.074,418.652,0.0
53392.0,STARLINK-4535,PAYLOAD,2022-09-07 14:00:01,15.48093901,0.0001355,53.2174,108.5723,66.1849,80.5055,-0.023146,-0.01113757,0.0,0 STARLINK-4535,1 53392U 22097E   22250.58334491 -.01113757  00000-0 -23146-1 0  9994,2 53392  53.2174 108.5723 0001355  66.1849  80.5055 15.48093901  1307,6800.439,93.018,423.226,421.383,0.0
53392.0,STARLINK-4535,PAYLOAD,2022-09-07 22:00:00,15.4729021,0.0001476,53.2173,106.9848,59.5545,145.4062,-0.023778,-0.01128771,0.0,0 STARLINK-4535,1 53392U 22097E   22250.91667824 -.01128771  00000-0 -23778-1 0  9993,2 53392  53.2173 106.9848 0001476  59.5545 145.4062 15.47290210  4931,6802.794,93.066,425.663,423.655,0.0
53392.0,STARLINK-4535,PAYLOAD,2022-09-08 14:00:01,15.45683288,0.000117,53.2175,103.8095,72.1885,246.421,-0.025079,-0.01126054,0.0,0 STARLINK-4535,1 53392U 22097E   22251.58334491 -.01126054  00000-0 -25079-1 0  9996,2 53392  53.2175 103.8095 0001170  72.1885 246.4210 15.45683288  1306,6807.5080000000025,93.163,430.17,428.577,0.0
53392.0,STARLINK-4535,PAYLOAD,2022-09-08 22:00:00,15.44914052,0.0001283,53.2177,102.2293,62.6171,311.3477,-0.026825,-0.01168942,0.0,0 STARLINK-4535,1 53392U 22097E   22251.91667824 -.01168942  00000-0 -26825-1 0  9994,2 53392  53.2177 102.2293 0001283  62.6171 311.3477 15.44914052  5090,6809.768,93.209,432.506,430.759,0.0
53392.0,STARLINK-4535,PAYLOAD,2022-09-09 14:00:01,15.43275255,0.0001369,53.2177,99.064,62.7183,59.1262,-0.027249,-0.01126632,0.0,0 STARLINK-4535,1 53392U 22097E   22252.58334491 -.01126632  00000-0 -27249-1 0  9990,2 53392  53.2177  99.0640 0001369  62.7183  59.1262 15.43275255  1301,6814.5880000000025,93.308,437.386,435.52,0.0
53392.0,STARLINK-4535,PAYLOAD,2022-09-09 22:00:00,15.42472686,0.0001475,53.2176,97.4879,61.4349,112.8905,-0.028016,-0.01127255,0.0,0 STARLINK-4535,1 53392U 22097E   22252.91667824 -.01127255  00000-0 -28016-1 0  9991,2 53392  53.2176  97.4879 0001475  61.4349 112.8905 15.42472686  1301,6816.951,93.357,439.822,437.811,0.0
53392.0,STARLINK-4535,PAYLOAD,2022-09-10 06:00:02,15.41671683,0.0001423,53.2174,95.9105,60.5997,165.3076,-0.028883,-0.01130859,0.0,0 STARLINK-4535,1 53392U 22097E   22253.25002315 -.01130859  00000-0 -28883-1 0  9993,2 53392  53.2174  95.9105 0001423  60.5997 165.3076 15.41671683  5297,6819.312,93.405,442.148,440.207,0.0
53392.0,STARLINK-4535,PAYLOAD,2022-09-10 14:00:01,15.40866658,0.0001309,53.2176,94.3356,66.1438,210.2522,-0.0295269999999999,-0.01125751,0.0,0 STARLINK-4535,1 53392U 22097E   22253.58334491 -.01125751  00000-0 -29527-1 0  9993,2 53392  53.2176  94.3356 0001309  66.1438 210.2522 15.40866658  1306,6821.687,93.454,444.445,442.659,0.0
53392.0,STARLINK-4535,PAYLOAD,2022-09-10 22:00:00,15.40064952,0.0001329,53.2175,92.7654,55.951,270.0314,-0.030409,-0.01128568,0.0,0 STARLINK-4535,1 53392U 22097E   22253.91667824 -.01128568  00000-0 -30409-1 0  9999,2 53392  53.2175  92.7654 0001329  55.9510 270.0314 15.40064952  1307,6824.054,93.503,446.826,445.013,0.0
53392.0,STARLINK-4535,PAYLOAD,2022-09-11 06:00:00,15.39262075,0.0001262,53.2174,91.1935,52.7298,321.8766,-0.031243,-0.01129019,0.0,0 STARLINK-4535,1 53392U 22097E   22254.25001157 -.01129019  00000-0 -31243-1 0  9997,2 53392  53.2174  91.1935 0001262  52.7298 321.8766 15.39262075  5455,6826.427,93.551,449.154,447.431,0.0
53392.0,STARLINK-4535,PAYLOAD,2022-09-11 14:00:01,15.3845705,0.0001346,53.2175,89.6245,54.142,8.1232,-0.031948,-0.01124687,0.0,0 STARLINK-4535,1 53392U 22097E   22254.58334491 -.01124687  00000-0 -31948-1 0  9991,2 53392  53.2175  89.6245 0001346  54.1420   8.1232 15.38457050  1309,6828.808000000001,93.6,451.592,449.754,0.0
53392.0,STARLINK-4535,PAYLOAD,2022-09-11 22:00:00,15.37654927,0.0001515,53.2174,88.0599,51.1523,57.8048,-0.032845,-0.01126164,0.0,0 STARLINK-4535,1 53392U 22097E   22254.91667824 -.01126164  00000-0 -32845-1 0  9996,2 53392  53.2174  88.0599 0001515  51.1523  57.8048 15.37654927  1309,6831.183000000001,93.649,454.083,452.013,0.0
53392.0,STARLINK-4535,PAYLOAD,2022-09-12 06:00:00,15.36882267,0.000151,53.2173,86.4953,60.4048,94.2647,-0.034961,-0.01165144,0.0,0 STARLINK-4535,1 53392U 22097E   22255.25001157 -.01165144  00000-0 -34961-1 0  9997,2 53392  53.2173  86.4953 0001510  60.4048  94.2647 15.36882267  5600,6833.472,93.696,456.369,454.305,0.0
53392.0,STARLINK-4535,PAYLOAD,2022-09-12 14:00:01,15.36048152,0.0001448,53.2175,84.9307,65.9372,133.5131,-0.034522,-0.01123614,0.0,0 STARLINK-4535,1 53392U 22097E   22255.58334491 -.01123614  00000-0 -34522-1 0  9992,2 53392  53.2175  84.9307 0001448  65.9372 133.5131 15.36048152  1303,6835.946,93.747,458.801,456.821,0.0
53392.0,STARLINK-4535,PAYLOAD,2022-09-12 22:00:00,15.35244484,0.0001436,53.2174,83.3716,63.5121,179.7362,-0.035383,-0.01122276,0.0,0 STARLINK-4535,1 53392U 22097E   22255.91667824 -.01122276  00000-0 -35383-1 0  9997,2 53392  53.2174  83.3716 0001436  63.5121 179.7362 15.35244484  1305,6838.331,93.796,461.17800000000005,459.214,0.0
53392.0,STARLINK-4535,PAYLOAD,2022-09-13 14:00:01,15.33640268,0.0001167,53.2175,80.2537,86.1066,241.8452,-0.037329,-0.01124451,0.0,0 STARLINK-4535,1 53392U 22097E   22256.58334491 -.01124451  00000-0 -37329-1 0  9991,2 53392  53.2175  80.2537 0001167  86.1066 241.8452 15.33640268  1302,6843.099,93.894,465.763,464.166,0.0
53392.0,STARLINK-4535,PAYLOAD,2022-09-13 16:00:00,15.33439872,0.0001205,53.2174,79.8654,74.406,353.862,-0.037613,-0.01125694,0.0,0 STARLINK-4535,1 53392U 22097E   22256.66667824 -.01125694  00000-0 -37613-1 0  9995,2 53392  53.2174  79.8654 0001205  74.4060 353.8620 15.33439872  5821,6843.695,93.907,466.385,464.736,0.0
53392.0,STARLINK-4535,PAYLOAD,2022-09-13 22:00:00,15.32836454,0.0001152,53.2174,78.7004,75.7276,293.1279,-0.0382589999999999,-0.01123491,0.0,0 STARLINK-4535,1 53392U 22097E   22256.91667824 -.01123491  00000-0 -38259-1 0  9993,2 53392  53.2174  78.7004 0001152  75.7276 293.1279 15.32836454  1303,6845.491,93.943,468.145,466.568,0.0
53392.0,STARLINK-4535,PAYLOAD,2022-09-14 14:00:01,15.31262573,0.0001314,53.2174,75.5948,71.5441,16.2079,-0.041739,-0.01162578,0.0,0 STARLINK-4535,1 53392U 22097E   22257.58334491 -.01162578  00000-0 -41739-1 0  9994,2 53392  53.2174  75.5948 0001314  71.5441  16.2079 15.31262573  1309,6850.181,94.04,472.946,471.146,0.0
53392.0,STARLINK-4535,PAYLOAD,2022-09-14 22:00:00,15.30435668,0.0001468,53.2175,74.0478,62.96100000000001,62.813,-0.041621,-0.01132547,0.0,0 STARLINK-4535,1 53392U 22097E   22257.91667824 -.01132547  00000-0 -41621-1 0  9993,2 53392  53.2175  74.0478 0001468  62.9610  62.8130 15.30435668  1305,6852.648,94.091,475.519,473.508,0.0
53392.0,STARLINK-4535,PAYLOAD,2022-09-15 14:00:01,15.28872958,0.0001326,53.2176,70.9524,71.0164,127.8608,-0.046012,-0.01203615,0.0,0 STARLINK-4535,1 53392U 22097E   22258.58334491 -.01203615  00000-0 -46012-1 0  9992,2 53392  53.2176  70.9524 0001326  71.0164 127.8608 15.28872958  1307,6857.316999999999,94.187,480.092,478.273,0.0
53392.0,STARLINK-4535,PAYLOAD,2022-09-15 22:00:00,15.28015263,0.0001391,53.2174,69.4091,70.6343,163.3872,-0.044149,-0.0111606,0.0,0 STARLINK-4535,1 53392U 22097E   22258.91667824 -.01116060  00000-0 -44149-1 0  9994,2 53392  53.2174  69.4091 0001391  70.6343 163.3872 15.28015263  1309,6859.8830000000025,94.24,482.702,480.794,0.0
53392.0,STARLINK-4535,PAYLOAD,2022-09-16 02:00:01,15.27623268,0.0001426,53.2172,68.6378,51.914,19.3002,-0.045351,-0.01131285,0.0,0 STARLINK-4535,1 53392U 22097E   22259.08334491 -.01131285  00000-0 -45351-1 0  9996,2 53392  53.2172  68.6378 0001426  51.9140  19.3002 15.27623268  6198,6861.057,94.264,483.9,481.943,0.0
53392.0,STARLINK-4535,PAYLOAD,2022-09-16 14:00:01,15.26427399,0.0001252999999999,53.2178,66.3268,77.2446,224.1028,-0.047335,-0.01137727,0.0,0 STARLINK-4535,1 53392U 22097E   22259.58334491 -.01137727  00000-0 -47335-1 0  9992,2 53392  53.2178  66.3268 0001253  77.2446 224.1028 15.26427399  1303,6864.64,94.338,487.365,485.644,0.0
53392.0,STARLINK-4535,PAYLOAD,2022-09-16 22:00:00,15.25608066,0.0001198,53.2174,64.789,72.2014,261.3769,-0.047604,-0.01117916,0.0,0 STARLINK-4535,1 53392U 22097E   22259.91667824 -.01117916  00000-0 -47604-1 0  9995,2 53392  53.2174  64.7890 0001198  72.2014 261.3769 15.25608066  1302,6867.097,94.389,489.785,488.139,0.0
